start=new Date('2023-05-04T00:00:00.000Z').valueOf();
sats=[{"REF_FRAME":"TEME","TLE_LINE1":"1 53067U 22077AA  23123.49575046 -.00000534  00000-0 -36984-4 0  9998","ARG_OF_PERICENTER":"42.6291","SEMIMAJOR_AXIS":"6941.170","LAUNCH_DATE":"2022-07-11","TIME_SYSTEM":"UTC","MEAN_ANOMALY":"317.5093","EPHEMERIS_TYPE":"0","COUNTRY_CODE":"US","FILE":"3899966","GP_ID":"231167740","PERIOD":"95.920","MEAN_MOTION_DDOT":"0.0000000000000","CLASSIFICATION_TYPE":"U","DECAY_DATE":null,"EPOCH":"2023-05-03T11:53:52.839744","RCS_SIZE":"LARGE","SITE":"AFWTR","NORAD_CAT_ID":"53067","INCLINATION":"97.6538","ECCENTRICITY":"0.00020690","TLE_LINE2":"2 53067  97.6538 305.2162 0002069  42.6291 317.5093 15.01252406 44700","PERIAPSIS":"561.599","OBJECT_TYPE":"PAYLOAD","RA_OF_ASC_NODE":"305.2162","MEAN_ELEMENT_THEORY":"SGP4","REV_AT_EPOCH":"4470","MEAN_MOTION_DOT":"-0.00000534","ELEMENT_SET_NO":"999","APOAPSIS":"564.471","OBJECT_NAME":"STARLINK-4306","OBJECT_ID":"2022-077AA","CENTER_NAME":"EARTH","MEAN_MOTION":"15.01252406","BSTAR":"-0.00003698400000"},{"TLE_LINE1":"1 53068U 22077AB  23123.49784198  .00000189  00000-0  19316-4 0  9993","ARG_OF_PERICENTER":"56.2274","REF_FRAME":"TEME","LAUNCH_DATE":"2022-07-11","SEMIMAJOR_AXIS":"6941.150","TIME_SYSTEM":"UTC","COUNTRY_CODE":"US","EPHEMERIS_TYPE":"0","MEAN_ANOMALY":"303.9225","EPOCH":"2023-05-03T11:56:53.547072","DECAY_DATE":null,"CLASSIFICATION_TYPE":"U","RCS_SIZE":"LARGE","SITE":"AFWTR","FILE":"3899966","GP_ID":"231167973","PERIOD":"95.919","MEAN_MOTION_DDOT":"0.0000000000000","ECCENTRICITY":"0.00028900","NORAD_CAT_ID":"53068","INCLINATION":"97.6542","TLE_LINE2":"2 53068  97.6542 305.2188 0002890  56.2274 303.9225 15.01258923 44704","PERIAPSIS":"561.009","OBJECT_TYPE":"PAYLOAD","MEAN_ELEMENT_THEORY":"SGP4","RA_OF_ASC_NODE":"305.2188","REV_AT_EPOCH":"4470","MEAN_MOTION_DOT":"0.00000189","ELEMENT_SET_NO":"999","APOAPSIS":"565.021","OBJECT_ID":"2022-077AB","OBJECT_NAME":"STARLINK-4325","BSTAR":"0.00001931600000","CENTER_NAME":"EARTH","MEAN_MOTION":"15.01258923"},{"APOAPSIS":"564.407","ELEMENT_SET_NO":"999","MEAN_ELEMENT_THEORY":"SGP4","RA_OF_ASC_NODE":"305.2097","REV_AT_EPOCH":"4470","MEAN_MOTION_DOT":"0.00000299","OBJECT_TYPE":"PAYLOAD","CENTER_NAME":"EARTH","MEAN_MOTION":"15.01259619","BSTAR":"0.00002787600000","OBJECT_NAME":"STARLINK-4323","OBJECT_ID":"2022-077AC","EPHEMERIS_TYPE":"0","MEAN_ANOMALY":"301.2957","COUNTRY_CODE":"US","TIME_SYSTEM":"UTC","SEMIMAJOR_AXIS":"6941.148","LAUNCH_DATE":"2022-07-11","REF_FRAME":"TEME","TLE_LINE1":"1 53069U 22077AC  23123.49203948  .00000299  00000-0  27876-4 0  9995","ARG_OF_PERICENTER":"58.8464","PERIAPSIS":"561.619","TLE_LINE2":"2 53069  97.6531 305.2097 0002009  58.8464 301.2957 15.01259619 44709","NORAD_CAT_ID":"53069","INCLINATION":"97.6531","ECCENTRICITY":"0.00020090","GP_ID":"231166244","FILE":"3899966","PERIOD":"95.919","MEAN_MOTION_DDOT":"0.0000000000000","CLASSIFICATION_TYPE":"U","DECAY_DATE":null,"EPOCH":"2023-05-03T11:48:32.211072","RCS_SIZE":"LARGE","SITE":"AFWTR"},{"PERIAPSIS":"560.691","TLE_LINE2":"2 53070  97.6541 305.2185 0003320  57.8849 302.2697 15.01265364 44709","NORAD_CAT_ID":"53070","INCLINATION":"97.6541","ECCENTRICITY":"0.00033200","PERIOD":"95.919","GP_ID":"231166492","FILE":"3899966","MEAN_MOTION_DDOT":"0.0000000000000","CLASSIFICATION_TYPE":"U","DECAY_DATE":null,"EPOCH":"2023-05-03T11:56:32.392032","RCS_SIZE":"LARGE","SITE":"AFWTR","EPHEMERIS_TYPE":"0","MEAN_ANOMALY":"302.2697","COUNTRY_CODE":"US","TIME_SYSTEM":"UTC","SEMIMAJOR_AXIS":"6941.130","LAUNCH_DATE":"2022-07-11","REF_FRAME":"TEME","TLE_LINE1":"1 53070U 22077AD  23123.49759713 -.00000575  00000-0 -40156-4 0  9998","ARG_OF_PERICENTER":"57.8849","CENTER_NAME":"EARTH","MEAN_MOTION":"15.01265364","BSTAR":"-0.00004015600000","OBJECT_NAME":"STARLINK-4342","OBJECT_ID":"2022-077AD","APOAPSIS":"565.300","ELEMENT_SET_NO":"999","REV_AT_EPOCH":"4470","RA_OF_ASC_NODE":"305.2185","MEAN_ELEMENT_THEORY":"SGP4","MEAN_MOTION_DOT":"-0.00000575","OBJECT_TYPE":"PAYLOAD"},{"BSTAR":"-0.00001111400000","CENTER_NAME":"EARTH","MEAN_MOTION":"15.01256048","OBJECT_ID":"2022-077AE","OBJECT_NAME":"STARLINK-4328","ELEMENT_SET_NO":"999","APOAPSIS":"563.703","OBJECT_TYPE":"PAYLOAD","MEAN_ELEMENT_THEORY":"SGP4","RA_OF_ASC_NODE":"305.2059","REV_AT_EPOCH":"4470","MEAN_MOTION_DOT":"-0.00000202","TLE_LINE2":"2 53071  97.6530 305.2059 0000978  90.6292 269.5044 15.01256048 44701","PERIAPSIS":"562.345","EPOCH":"2023-05-03T11:45:52.314048","DECAY_DATE":null,"CLASSIFICATION_TYPE":"U","SITE":"AFWTR","RCS_SIZE":"LARGE","GP_ID":"231167241","PERIOD":"95.920","FILE":"3899966","MEAN_MOTION_DDOT":"0.0000000000000","ECCENTRICITY":"0.00009780","NORAD_CAT_ID":"53071","INCLINATION":"97.6530","TIME_SYSTEM":"UTC","COUNTRY_CODE":"US","EPHEMERIS_TYPE":"0","MEAN_ANOMALY":"269.5044","TLE_LINE1":"1 53071U 22077AE  23123.49018882 -.00000202  00000-0 -11114-4 0  9993","ARG_OF_PERICENTER":"90.6292","REF_FRAME":"TEME","LAUNCH_DATE":"2022-07-11","SEMIMAJOR_AXIS":"6941.159"},{"MEAN_MOTION_DDOT":"0.0000000000000","GP_ID":"231167474","PERIOD":"95.919","FILE":"3899966","RCS_SIZE":"LARGE","SITE":"AFWTR","DECAY_DATE":null,"CLASSIFICATION_TYPE":"U","EPOCH":"2023-05-03T11:51:12.058848","INCLINATION":"97.6536","NORAD_CAT_ID":"53072","ECCENTRICITY":"0.00021330","TLE_LINE2":"2 53072  97.6536 305.2130 0002133  49.3040 310.8370 15.01260579 44701","PERIAPSIS":"561.530","REF_FRAME":"TEME","ARG_OF_PERICENTER":"49.3040","TLE_LINE1":"1 53072U 22077AF  23123.49388957  .00000332  00000-0  30462-4 0  9996","SEMIMAJOR_AXIS":"6941.145","LAUNCH_DATE":"2022-07-11","TIME_SYSTEM":"UTC","MEAN_ANOMALY":"310.8370","EPHEMERIS_TYPE":"0","COUNTRY_CODE":"US","OBJECT_NAME":"STARLINK-4344","OBJECT_ID":"2022-077AF","MEAN_MOTION":"15.01260579","CENTER_NAME":"EARTH","BSTAR":"0.00003046200000","OBJECT_TYPE":"PAYLOAD","MEAN_MOTION_DOT":"0.00000332","MEAN_ELEMENT_THEORY":"SGP4","RA_OF_ASC_NODE":"305.2130","REV_AT_EPOCH":"4470","ELEMENT_SET_NO":"999","APOAPSIS":"564.491"},{"PERIAPSIS":"562.047","TLE_LINE2":"2 53073  97.6533 305.1986 0001400 100.3929 259.7453 15.01257793 44704","INCLINATION":"97.6533","NORAD_CAT_ID":"53073","ECCENTRICITY":"0.00014000","MEAN_MOTION_DDOT":"0.0000000000000","PERIOD":"95.920","GP_ID":"231166743","FILE":"3899966","SITE":"AFWTR","RCS_SIZE":"LARGE","DECAY_DATE":null,"CLASSIFICATION_TYPE":"U","EPOCH":"2023-05-03T11:40:32.426688","MEAN_ANOMALY":"259.7453","EPHEMERIS_TYPE":"0","COUNTRY_CODE":"US","TIME_SYSTEM":"UTC","SEMIMAJOR_AXIS":"6941.154","LAUNCH_DATE":"2022-07-11","REF_FRAME":"TEME","ARG_OF_PERICENTER":"100.3929","TLE_LINE1":"1 53073U 22077AG  23123.48648642 -.00000102  00000-0 -33162-5 0  9994","MEAN_MOTION":"15.01257793","CENTER_NAME":"EARTH","BSTAR":"-0.00000331620000","OBJECT_NAME":"STARLINK-4346","OBJECT_ID":"2022-077AG","APOAPSIS":"563.990","ELEMENT_SET_NO":"999","MEAN_MOTION_DOT":"-0.00000102","REV_AT_EPOCH":"4470","RA_OF_ASC_NODE":"305.1986","MEAN_ELEMENT_THEORY":"SGP4","OBJECT_TYPE":"PAYLOAD"},{"TLE_LINE1":"1 53074U 22077AH  23123.49043341 -.00000358  00000-0 -23303-4 0  9999","ARG_OF_PERICENTER":"56.7184","REF_FRAME":"TEME","LAUNCH_DATE":"2022-07-11","SEMIMAJOR_AXIS":"6941.157","TIME_SYSTEM":"UTC","COUNTRY_CODE":"US","EPHEMERIS_TYPE":"0","MEAN_ANOMALY":"303.4137","EPOCH":"2023-05-03T11:46:13.446624","DECAY_DATE":null,"CLASSIFICATION_TYPE":"U","SITE":"AFWTR","RCS_SIZE":"LARGE","FILE":"3899627","GP_ID":"231136047","PERIOD":"95.920","MEAN_MOTION_DDOT":"0.0000000000000","ECCENTRICITY":"0.00010120","NORAD_CAT_ID":"53074","INCLINATION":"97.6528","TLE_LINE2":"2 53074  97.6528 305.2065 0001012  56.7184 303.4137 15.01256724 45287","PERIAPSIS":"562.320","OBJECT_TYPE":"PAYLOAD","MEAN_ELEMENT_THEORY":"SGP4","RA_OF_ASC_NODE":"305.2065","REV_AT_EPOCH":"4528","MEAN_MOTION_DOT":"-0.00000358","ELEMENT_SET_NO":"999","APOAPSIS":"563.724","OBJECT_ID":"2022-077AH","OBJECT_NAME":"STARLINK-4310","BSTAR":"-0.00002330300000","CENTER_NAME":"EARTH","MEAN_MOTION":"15.01256724"},{"TIME_SYSTEM":"UTC","COUNTRY_CODE":"US","EPHEMERIS_TYPE":"0","MEAN_ANOMALY":"254.8567","TLE_LINE1":"1 53075U 22077AJ  23123.48573679 -.00000425  00000-0 -29187-4 0  9992","ARG_OF_PERICENTER":"105.2780","REF_FRAME":"TEME","LAUNCH_DATE":"2022-07-11","SEMIMAJOR_AXIS":"6943.645","TLE_LINE2":"2 53075  97.6545 305.1878 0001115 105.2780 254.8567 15.00449795 44707","PERIAPSIS":"564.736","DECAY_DATE":null,"EPOCH":"2023-05-03T11:39:27.658656","CLASSIFICATION_TYPE":"U","SITE":"AFWTR","RCS_SIZE":"LARGE","FILE":"3899966","GP_ID":"231167741","PERIOD":"95.971","MEAN_MOTION_DDOT":"0.0000000000000","ECCENTRICITY":"0.00011150","NORAD_CAT_ID":"53075","INCLINATION":"97.6545","ELEMENT_SET_NO":"999","APOAPSIS":"566.285","OBJECT_TYPE":"PAYLOAD","MEAN_ELEMENT_THEORY":"SGP4","RA_OF_ASC_NODE":"305.1878","REV_AT_EPOCH":"4470","MEAN_MOTION_DOT":"-0.00000425","BSTAR":"-0.00002918700000","CENTER_NAME":"EARTH","MEAN_MOTION":"15.00449795","OBJECT_ID":"2022-077AJ","OBJECT_NAME":"STARLINK-4348"},{"SITE":"AFWTR","RCS_SIZE":"LARGE","DECAY_DATE":null,"EPOCH":"2023-05-03T11:43:13.448640","CLASSIFICATION_TYPE":"U","MEAN_MOTION_DDOT":"0.0000000000000","GP_ID":"231167974","PERIOD":"95.919","FILE":"3899966","ECCENTRICITY":"0.00014840","INCLINATION":"97.6534","NORAD_CAT_ID":"53076","TLE_LINE2":"2 53076  97.6534 305.2018 0001484  86.4149 273.7245 15.01267549 44700","PERIAPSIS":"561.959","ARG_OF_PERICENTER":"86.4149","TLE_LINE1":"1 53076U 22077AK  23123.48835010  .00001811  00000-0  14554-3 0  9992","REF_FRAME":"TEME","LAUNCH_DATE":"2022-07-11","SEMIMAJOR_AXIS":"6941.124","TIME_SYSTEM":"UTC","COUNTRY_CODE":"US","MEAN_ANOMALY":"273.7245","EPHEMERIS_TYPE":"0","OBJECT_ID":"2022-077AK","OBJECT_NAME":"STARLINK-4347","BSTAR":"0.00014554000000","MEAN_MOTION":"15.01267549","CENTER_NAME":"EARTH","OBJECT_TYPE":"PAYLOAD","MEAN_MOTION_DOT":"0.00001811","RA_OF_ASC_NODE":"305.2018","MEAN_ELEMENT_THEORY":"SGP4","REV_AT_EPOCH":"4470","ELEMENT_SET_NO":"999","APOAPSIS":"564.019"}];
